STARLINK-34133          
1 64143U 25111W   26064.48560105  .00037091  00000+0  13503-2 0  9998
2 64143  43.0039 101.3309 0001944 280.1061  79.9572 15.27587131 44829
STARLINK-34181          
1 64144U 25111X   26064.50742991  .00028273  00000+0  10334-2 0  9998
2 64144  43.0007 101.4951 0001598 263.7024  96.3646 15.27568562 44822
STARLINK-34186          
1 64145U 25111Y   26064.38565383  .00018727  00000+0  68837-3 0  9998
2 64145  43.0023 102.3015 0001970 283.5267  76.5365 15.27577602 44806
STARLINK-34314          
1 64146U 25112A   26064.68138639  .00003593  00000+0  25313-3 0  9990
2 64146  97.6022 117.5388 0001091  96.0705 264.0646 15.05649130 42705
STARLINK-33926          
1 64147U 25112B   26064.72294249  .00024397  00000+0  16908-2 0  9990
2 64147  97.6026 117.6399 0000653 187.2935 172.8282 15.05614924 42710
STARLINK-34213          
1 64148U 25112C   26064.62323030  .00008935  00000+0  62248-3 0  9990
2 64148  97.6031 117.4634 0000222  35.2857 324.8385 15.05660230 42695
STARLINK-33924          
1 64149U 25112D   26064.69799763  .00003730  00000+0  26255-3 0  9994
2 64149  97.6035 117.5188 0000824 106.5583 253.5734 15.05652354 42707
STARLINK-34209          
1 64150U 25112E   26064.71461964  .00007054  00000+0  49245-3 0  9995
2 64150  97.6011 117.6487 0000402 127.2812 232.8451 15.05661073 42718
STARLINK-34338          
1 64151U 25112F   26064.70632649  .00007053  00000+0  49241-3 0  9990
2 64151  97.6025 117.6609 0001105  94.5990 265.5362 15.05656866 42712
STARLINK-34348          
1 64152U 25112G   26064.73952757 -.00009363  00000+0 -64571-3 0  9990
2 64152  97.6024 117.6182 0001531  94.1728 265.9674 15.05640430 42716
STARLINK-34345          
1 64153U 25112H   26064.73123600  .00005897  00000+0  41246-3 0  9998
2 64153  97.6027 117.6294 0001524 140.7449 219.3889 15.05657369 42714
STARLINK-33945          
1 64154U 25112J   26064.72353486  .00007107  00000+0  49644-3 0  9991
2 64154  97.6028 126.1227 0001074  95.2921 264.8429 15.05634504 43268
STARLINK-34346          
1 64155U 25112K   26064.71739072  .00002549  00000+0  18077-3 0  9991
2 64155  97.6013 117.6536 0000777 122.3616 237.7686 15.05650609 42710
STARLINK-34277          
1 64156U 25112L   26064.68414699  .00005886  00000+0  41172-3 0  9992
2 64156  97.6012 117.5410 0000959 174.6348 185.4889 15.05659707 42705
STARLINK-34343          
1 64157U 25112M   26064.73400721  .00003280  00000+0  23132-3 0  9992
2 64157  97.6021 117.6345 0001255 117.3772 242.7583 15.05668132 42710
STARLINK-34166          
1 64158U 25112N   26064.70076859  .00007223  00000+0  50424-3 0  9996
2 64158  97.6041 117.5208 0001054 162.5355 197.5908 15.05654400 42706
STARLINK-34344          
1 64159U 25112P   26064.82536258  .00015264  00000+0  10592-2 0  9999
2 64159  97.6029 117.6642 0000914 118.0995 242.0324 15.05671722 42722
