[{"OBJECT_NAME":"STARLINK-34133","OBJECT_ID":"2025-111W","EPOCH":"2026-03-05T11:39:15.930720","MEAN_MOTION":15.27587131,"ECCENTRICITY":0.0001944,"INCLINATION":43.0039,"RA_OF_ASC_NODE":101.3309,"ARG_OF_PERICENTER":280.1061,"MEAN_ANOMALY":79.9572,"EPHEMERIS_TYPE":0,"CLASSIFICATION_TYPE":"U","NORAD_CAT_ID":64143,"ELEMENT_SET_NO":999,"REV_AT_EPOCH":4482,"BSTAR":0.0013503,"MEAN_MOTION_DOT":0.00037091,"MEAN_MOTION_DDOT":0},{"OBJECT_NAME":"STARLINK-34181","OBJECT_ID":"2025-111X","EPOCH":"2026-03-05T12:10:41.944224","MEAN_MOTION":15.27568562,"ECCENTRICITY":0.0001598,"INCLINATION":43.0007,"RA_OF_ASC_NODE":101.4951,"ARG_OF_PERICENTER":263.7024,"MEAN_ANOMALY":96.3646,"EPHEMERIS_TYPE":0,"CLASSIFICATION_TYPE":"U","NORAD_CAT_ID":64144,"ELEMENT_SET_NO":999,"REV_AT_EPOCH":4482,"BSTAR":0.0010334,"MEAN_MOTION_DOT":0.00028273,"MEAN_MOTION_DDOT":0},{"OBJECT_NAME":"STARLINK-34186","OBJECT_ID":"2025-111Y","EPOCH":"2026-03-05T09:15:20.490912","MEAN_MOTION":15.27577602,"ECCENTRICITY":0.000197,"INCLINATION":43.0023,"RA_OF_ASC_NODE":102.3015,"ARG_OF_PERICENTER":283.5267,"MEAN_ANOMALY":76.5365,"EPHEMERIS_TYPE":0,"CLASSIFICATION_TYPE":"U","NORAD_CAT_ID":64145,"ELEMENT_SET_NO":999,"REV_AT_EPOCH":4480,"BSTAR":0.00068837,"MEAN_MOTION_DOT":0.00018727,"MEAN_MOTION_DDOT":0},{"OBJECT_NAME":"STARLINK-34314","OBJECT_ID":"2025-112A","EPOCH":"2026-03-05T16:21:11.784096","MEAN_MOTION":15.0564913,"ECCENTRICITY":0.0001091,"INCLINATION":97.6022,"RA_OF_ASC_NODE":117.5388,"ARG_OF_PERICENTER":96.0705,"MEAN_ANOMALY":264.0646,"EPHEMERIS_TYPE":0,"CLASSIFICATION_TYPE":"U","NORAD_CAT_ID":64146,"ELEMENT_SET_NO":999,"REV_AT_EPOCH":4270,"BSTAR":0.00025313,"MEAN_MOTION_DOT":3.593e-5,"MEAN_MOTION_DDOT":0},{"OBJECT_NAME":"STARLINK-33926","OBJECT_ID":"2025-112B","EPOCH":"2026-03-05T17:21:02.231136","MEAN_MOTION":15.05614924,"ECCENTRICITY":6.53e-5,"INCLINATION":97.6026,"RA_OF_ASC_NODE":117.6399,"ARG_OF_PERICENTER":187.2935,"MEAN_ANOMALY":172.8282,"EPHEMERIS_TYPE":0,"CLASSIFICATION_TYPE":"U","NORAD_CAT_ID":64147,"ELEMENT_SET_NO":999,"REV_AT_EPOCH":4271,"BSTAR":0.0016908,"MEAN_MOTION_DOT":0.00024397,"MEAN_MOTION_DDOT":0},{"OBJECT_NAME":"STARLINK-34213","OBJECT_ID":"2025-112C","EPOCH":"2026-03-05T14:57:27.097920","MEAN_MOTION":15.0566023,"ECCENTRICITY":2.22e-5,"INCLINATION":97.6031,"RA_OF_ASC_NODE":117.4634,"ARG_OF_PERICENTER":35.2857,"MEAN_ANOMALY":324.8385,"EPHEMERIS_TYPE":0,"CLASSIFICATION_TYPE":"U","NORAD_CAT_ID":64148,"ELEMENT_SET_NO":999,"REV_AT_EPOCH":4269,"BSTAR":0.00062248,"MEAN_MOTION_DOT":8.935e-5,"MEAN_MOTION_DDOT":0},{"OBJECT_NAME":"STARLINK-33924","OBJECT_ID":"2025-112D","EPOCH":"2026-03-05T16:45:06.995232","MEAN_MOTION":15.05652354,"ECCENTRICITY":8.24e-5,"INCLINATION":97.6035,"RA_OF_ASC_NODE":117.5188,"ARG_OF_PERICENTER":106.5583,"MEAN_ANOMALY":253.5734,"EPHEMERIS_TYPE":0,"CLASSIFICATION_TYPE":"U","NORAD_CAT_ID":64149,"ELEMENT_SET_NO":999,"REV_AT_EPOCH":4270,"BSTAR":0.00026255,"MEAN_MOTION_DOT":3.73e-5,"MEAN_MOTION_DDOT":0},{"OBJECT_NAME":"STARLINK-34209","OBJECT_ID":"2025-112E","EPOCH":"2026-03-05T17:09:03.136896","MEAN_MOTION":15.05661073,"ECCENTRICITY":4.02e-5,"INCLINATION":97.6011,"RA_OF_ASC_NODE":117.6487,"ARG_OF_PERICENTER":127.2812,"MEAN_ANOMALY":232.8451,"EPHEMERIS_TYPE":0,"CLASSIFICATION_TYPE":"U","NORAD_CAT_ID":64150,"ELEMENT_SET_NO":999,"REV_AT_EPOCH":4271,"BSTAR":0.00049245,"MEAN_MOTION_DOT":7.054e-5,"MEAN_MOTION_DDOT":0},{"OBJECT_NAME":"STARLINK-34338","OBJECT_ID":"2025-112F","EPOCH":"2026-03-05T16:57:06.608736","MEAN_MOTION":15.05656866,"ECCENTRICITY":0.0001105,"INCLINATION":97.6025,"RA_OF_ASC_NODE":117.6609,"ARG_OF_PERICENTER":94.599,"MEAN_ANOMALY":265.5362,"EPHEMERIS_TYPE":0,"CLASSIFICATION_TYPE":"U","NORAD_CAT_ID":64151,"ELEMENT_SET_NO":999,"REV_AT_EPOCH":4271,"BSTAR":0.00049241,"MEAN_MOTION_DOT":7.053e-5,"MEAN_MOTION_DDOT":0},{"OBJECT_NAME":"STARLINK-34348","OBJECT_ID":"2025-112G","EPOCH":"2026-03-05T17:44:55.182048","MEAN_MOTION":15.0564043,"ECCENTRICITY":0.0001531,"INCLINATION":97.6024,"RA_OF_ASC_NODE":117.6182,"ARG_OF_PERICENTER":94.1728,"MEAN_ANOMALY":265.9674,"EPHEMERIS_TYPE":0,"CLASSIFICATION_TYPE":"U","NORAD_CAT_ID":64152,"ELEMENT_SET_NO":999,"REV_AT_EPOCH":4271,"BSTAR":-0.00064571,"MEAN_MOTION_DOT":-9.363e-5,"MEAN_MOTION_DDOT":0},{"OBJECT_NAME":"STARLINK-34345","OBJECT_ID":"2025-112H","EPOCH":"2026-03-05T17:32:58.790400","MEAN_MOTION":15.05657369,"ECCENTRICITY":0.0001524,"INCLINATION":97.6027,"RA_OF_ASC_NODE":117.6294,"ARG_OF_PERICENTER":140.7449,"MEAN_ANOMALY":219.3889,"EPHEMERIS_TYPE":0,"CLASSIFICATION_TYPE":"U","NORAD_CAT_ID":64153,"ELEMENT_SET_NO":999,"REV_AT_EPOCH":4271,"BSTAR":0.00041246,"MEAN_MOTION_DOT":5.897e-5,"MEAN_MOTION_DDOT":0},{"OBJECT_NAME":"STARLINK-33945","OBJECT_ID":"2025-112J","EPOCH":"2026-03-05T17:21:53.411904","MEAN_MOTION":15.05634504,"ECCENTRICITY":0.0001074,"INCLINATION":97.6028,"RA_OF_ASC_NODE":126.1227,"ARG_OF_PERICENTER":95.2921,"MEAN_ANOMALY":264.8429,"EPHEMERIS_TYPE":0,"CLASSIFICATION_TYPE":"U","NORAD_CAT_ID":64154,"ELEMENT_SET_NO":999,"REV_AT_EPOCH":4326,"BSTAR":0.00049644,"MEAN_MOTION_DOT":7.107e-5,"MEAN_MOTION_DDOT":0},{"OBJECT_NAME":"STARLINK-34346","OBJECT_ID":"2025-112K","EPOCH":"2026-03-05T17:13:02.558208","MEAN_MOTION":15.05650609,"ECCENTRICITY":7.77e-5,"INCLINATION":97.6013,"RA_OF_ASC_NODE":117.6536,"ARG_OF_PERICENTER":122.3616,"MEAN_ANOMALY":237.7686,"EPHEMERIS_TYPE":0,"CLASSIFICATION_TYPE":"U","NORAD_CAT_ID":64155,"ELEMENT_SET_NO":999,"REV_AT_EPOCH":4271,"BSTAR":0.00018077,"MEAN_MOTION_DOT":2.549e-5,"MEAN_MOTION_DDOT":0},{"OBJECT_NAME":"STARLINK-34277","OBJECT_ID":"2025-112L","EPOCH":"2026-03-05T16:25:10.299936","MEAN_MOTION":15.05659707,"ECCENTRICITY":9.59e-5,"INCLINATION":97.6012,"RA_OF_ASC_NODE":117.541,"ARG_OF_PERICENTER":174.6348,"MEAN_ANOMALY":185.4889,"EPHEMERIS_TYPE":0,"CLASSIFICATION_TYPE":"U","NORAD_CAT_ID":64156,"ELEMENT_SET_NO":999,"REV_AT_EPOCH":4270,"BSTAR":0.00041172,"MEAN_MOTION_DOT":5.886e-5,"MEAN_MOTION_DDOT":0},{"OBJECT_NAME":"STARLINK-34343","OBJECT_ID":"2025-112M","EPOCH":"2026-03-05T17:36:58.222944","MEAN_MOTION":15.05668132,"ECCENTRICITY":0.0001255,"INCLINATION":97.6021,"RA_OF_ASC_NODE":117.6345,"ARG_OF_PERICENTER":117.3772,"MEAN_ANOMALY":242.7583,"EPHEMERIS_TYPE":0,"CLASSIFICATION_TYPE":"U","NORAD_CAT_ID":64157,"ELEMENT_SET_NO":999,"REV_AT_EPOCH":4271,"BSTAR":0.00023132,"MEAN_MOTION_DOT":3.28e-5,"MEAN_MOTION_DDOT":0},{"OBJECT_NAME":"STARLINK-34166","OBJECT_ID":"2025-112N","EPOCH":"2026-03-05T16:49:06.406176","MEAN_MOTION":15.056544,"ECCENTRICITY":0.0001054,"INCLINATION":97.6041,"RA_OF_ASC_NODE":117.5208,"ARG_OF_PERICENTER":162.5355,"MEAN_ANOMALY":197.5908,"EPHEMERIS_TYPE":0,"CLASSIFICATION_TYPE":"U","NORAD_CAT_ID":64158,"ELEMENT_SET_NO":999,"REV_AT_EPOCH":4270,"BSTAR":0.00050424,"MEAN_MOTION_DOT":7.223e-5,"MEAN_MOTION_DDOT":0},{"OBJECT_NAME":"STARLINK-34344","OBJECT_ID":"2025-112P","EPOCH":"2026-03-05T19:48:31.326912","MEAN_MOTION":15.05671722,"ECCENTRICITY":9.14e-5,"INCLINATION":97.6029,"RA_OF_ASC_NODE":117.6642,"ARG_OF_PERICENTER":118.0995,"MEAN_ANOMALY":242.0324,"EPHEMERIS_TYPE":0,"CLASSIFICATION_TYPE":"U","NORAD_CAT_ID":64159,"ELEMENT_SET_NO":999,"REV_AT_EPOCH":4272,"BSTAR":0.0010592,"MEAN_MOTION_DOT":0.00015264,"MEAN_MOTION_DDOT":0}]
